$$SOE
2460154.500000000, A.D. 2023-Jul-29 00:00:00.0000, 4.377771629821215E+08, 7.490305218451746E+07, 6.704410964750386E+07,
2460161.500000000, A.D. 2023-Aug-05 00:00:00.0000, 4.356473579247307E+08, 8.540328151286295E+07, 6.809541812779802E+07,
2460168.500000000, A.D. 2023-Aug-12 00:00:00.0000, 4.332842329580393E+08, 9.585799240255482E+07, 6.911016847718364E+07,
2460175.500000000, A.D. 2023-Aug-19 00:00:00.0000, 4.306890222832546E+08, 1.062615786979230E+08, 7.008780876236230E+07,
2460182.500000000, A.D. 2023-Aug-26 00:00:00.0000, 4.278631123531511E+08, 1.166084662815739E+08, 7.102781111884005E+07,
2460189.500000000, A.D. 2023-Sep-02 00:00:00.0000, 4.248080406605261E+08, 1.268931180443566E+08, 7.192967223462367E+07,
2460196.500000000, A.D. 2023-Sep-09 00:00:00.0000, 4.215254943433173E+08, 1.371100386953566E+08, 7.279291379234406E+07,
2460203.500000000, A.D. 2023-Sep-16 00:00:00.0000, 4.180173087778947E+08, 1.472537793431712E+08, 7.361708284883532E+07,
2460210.500000000, A.D. 2023-Sep-23 00:00:00.0000, 4.142854665794858E+08, 1.573189421237536E+08, 7.440175213608289E+07,
2460217.500000000, A.D. 2023-Sep-30 00:00:00.0000, 4.103320966706676E+08, 1.673001860545448E+08, 7.514652040991537E+07,
2460224.500000000, A.D. 2023-Oct-07 00:00:00.0000, 4.061594710652958E+08, 1.771922335645510E+08, 7.585101301671761E+07,
2460231.500000000, A.D. 2023-Oct-14 00:00:00.0000, 4.017700004139964E+08, 1.869898743807762E+08, 7.651488231245756E+07,
2460238.500000000, A.D. 2023-Oct-21 00:00:00.0000, 3.971662315463612E+08, 1.966879683650171E+08, 7.713780776883236E+07,
2460245.500000000, A.D. 2023-Oct-28 00:00:00.0000, 3.923508455906010E+08, 2.062814495529813E+08, 7.771949608162203E+07,
2460252.500000000, A.D. 2023-Nov-04 00:00:00.0000, 3.873266554271091E+08, 2.157653306181229E+08, 7.825968133323643E+07,
2460259.500000000, A.D. 2023-Nov-11 00:00:00.0000, 3.820966026608210E+08, 2.251347071531535E+08, 7.875812514450559E+07,
2460266.500000000, A.D. 2023-Nov-18 00:00:00.0000, 3.766637543393118E+08, 2.343847616980273E+08, 7.921461679060239E+07,
2460273.500000000, A.D. 2023-Nov-25 00:00:00.0000, 3.710312994971049E+08, 2.435107675305713E+08, 7.962897327656750E+07,
2460280.500000000, A.D. 2023-Dec-02 00:00:00.0000, 3.652025455623910E+08, 2.525080922026815E+08, 8.000103936932640E+07,
2460287.500000000, A.D. 2023-Dec-09 00:00:00.0000, 3.591809147124432E+08, 2.613722007578025E+08, 8.033068757471608E+07,
2460294.500000000, A.D. 2023-Dec-16 00:00:00.0000, 3.529699404743674E+08, 2.700986586373026E+08, 8.061781803470533E+07,
2460301.500000000, A.D. 2023-Dec-23 00:00:00.0000, 3.465732649290524E+08, 2.786831349578700E+08, 8.086235836926307E+07,
2460308.500000000, A.D. 2023-Dec-30 00:00:00.0000, 3.399946351856909E+08, 2.871214072033333E+08, 8.106426367103627E+07,
2460315.500000000, A.D. 2024-Jan-06 00:00:00.0000, 3.332378973613642E+08, 2.954093649674155E+08, 8.122351662266770E+07,
2460322.500000000, A.D. 2024-Jan-13 00:00:00.0000, 3.263069912495543E+08, 3.035430109395642E+08, 8.134012729946394E+07,
2460329.500000000, A.D. 2024-Jan-20 00:00:00.0000, 3.192059469118502E+08, 3.115184622148495E+08, 8.141413279753053E+07,
2460336.500000000, A.D. 2024-Jan-27 00:00:00.0000, 3.119388811723268E+08, 3.193319525770208E+08, 8.144559692665116E+07,
2460343.500000000, A.D. 2024-Feb-03 00:00:00.0000, 3.045099935949521E+08, 3.269798348047215E+08, 8.143460993019021E+07,
2460350.500000000, A.D. 2024-Feb-10 00:00:00.0000, 2.969235622307509E+08, 3.344585827090047E+08, 8.138128818356599E+07,
2460357.500000000, A.D. 2024-Feb-17 00:00:00.0000, 2.891839392828456E+08, 3.417647929096944E+08, 8.128577386009997E+07,
2460364.500000000, A.D. 2024-Feb-24 00:00:00.0000, 2.812955467345987E+08, 3.488951863654369E+08, 8.114823456312500E+07,
2460371.500000000, A.D. 2024-Mar-02 00:00:00.0000, 2.732628719793147E+08, 3.558466096254733E+08, 8.096886292010334E+07,
2460378.500000000, A.D. 2024-Mar-09 00:00:00.0000, 2.650904635992884E+08, 3.626160357414986E+08, 8.074787612215491E+07,
2460385.500000000, A.D. 2024-Mar-16 00:00:00.0000, 2.567829276986828E+08, 3.692005650388333E+08, 8.048551539036103E+07,
2460392.500000000, A.D. 2024-Mar-23 00:00:00.0000, 2.483449246962053E+08, 3.755974268576750E+08, 8.018204547035705E+07,
2460399.500000000, A.D. 2024-Mar-30 00:00:00.0000, 2.397811643440407E+08, 3.818039822378544E+08, 7.983775435929006E+07,
2460406.500000000, A.D. 2024-Apr-06 00:00:00.0000, 2.310963992347359E+08, 3.878177241824862E+08, 7.945295296794550E+07,
2460413.500000000, A.D. 2024-Apr-13 00:00:00.0000, 2.222954203561352E+08, 3.936362763428150E+08, 7.902797446326309E+07,
2460420.500000000, A.D. 2024-Apr-20 00:00:00.0000, 2.133830537511294E+08, 3.992573928040318E+08, 7.856317359887721E+07,
2460427.500000000, A.D. 2024-Apr-27 00:00:00.0000, 2.043641567716365E+08, 4.046789584135653E+08, 7.805892612826478E+07,
2460434.500000000, A.D. 2024-May-04 00:00:00.0000, 1.952436140209480E+08, 4.098989889528667E+08, 7.751562823671535E+07,
2460441.500000000, A.D. 2024-May-11 00:00:00.0000, 1.860263332292154E+08, 4.149156310559567E+08, 7.693369596385142E+07,
2460448.500000000, A.D. 2024-May-18 00:00:00.0000, 1.767172411504125E+08, 4.197271619015262E+08, 7.631356461279699E+07,
2460455.500000000, A.D. 2024-May-25 00:00:00.0000, 1.673212795115404E+08, 4.243319886764140E+08, 7.565568814481661E+07,
2460462.500000000, A.D. 2024-Jun-01 00:00:00.0000, 1.578434010793211E+08, 4.287286477575359E+08, 7.496053855064452E+07,
2460469.500000000, A.D. 2024-Jun-08 00:00:00.0000, 1.482885660950260E+08, 4.329158035936463E+08, 7.422860517525768E+07,
2460476.500000000, A.D. 2024-Jun-15 00:00:00.0000, 1.386617394802653E+08, 4.368922478371462E+08, 7.346039400536036E+07,
2460483.500000000, A.D. 2024-Jun-22 00:00:00.0000, 1.289678878118118E+08, 4.406568999067950E+08, 7.265642710935351E+07,
2460490.500000000, A.D. 2024-Jun-29 00:00:00.0000, 1.192119739459395E+08, 4.442088071650439E+08, 7.181724227693263E+07,
2460497.500000000, A.D. 2024-Jul-06 00:00:00.0000, 1.093989519377983E+08, 4.475471422462655E+08, 7.094339241603413E+07,
2460504.500000000, A.D. 2024-Jul-13 00:00:00.0000, 9.953376420897065E+07, 4.506712003703252E+08, 7.003544476189014E+07,
2460511.500000000, A.D. 2024-Jul-20 00:00:00.0000, 8.962133898230809E+07, 4.535803977969408E+08, 6.909398017564064E+07,
2460518.500000000, A.D. 2024-Jul-27 00:00:00.0000, 7.966658733065836E+07, 4.562742704663746E+08, 6.811959251507533E+07,
2460525.500000000, A.D. 2024-Aug-03 00:00:00.0000, 6.967440011403142E+07, 4.587524724569517E+08, 6.711288802258739E+07,
2460532.500000000, A.D. 2024-Aug-10 00:00:00.0000, 5.964964497215337E+07, 4.610147742606757E+08, 6.607448471543154E+07,
2460539.500000000, A.D. 2024-Aug-17 00:00:00.0000, 4.959716342051131E+07, 4.630610609045047E+08, 6.500501177629906E+07,
2460546.500000000, A.D. 2024-Aug-24 00:00:00.0000, 3.952176807814179E+07, 4.648913299009226E+08, 6.390510894035086E+07,
2460553.500000000, A.D. 2024-Aug-31 00:00:00.0000, 2.942824014285800E+07, 4.665056889722148E+08, 6.277542586355409E+07,
2460560.500000000, A.D. 2024-Sep-07 00:00:00.0000, 1.932132747909734E+07, 4.679043536808531E+08, 6.161662144961607E+07,
2460567.500000000, A.D. 2024-Sep-14 00:00:00.0000, 9.205743403251100E+06, 4.690876459685033E+08, 6.042936320965195E+07,
2460574.500000000, A.D. 2024-Sep-21 00:00:00.0000, -9.138358618129627E+05, 4.700559940223808E+08, 5.921432687474564E+07,
2460581.500000000, A.D. 2024-Sep-28 00:00:00.0000, -1.103277555073569E+07, 4.708099302442833E+08, 5.797219604223466E+07,
2460588.500000000, A.D. 2024-Oct-05 00:00:00.0000, -2.114648487138420E+07, 4.713500873285013E+08, 5.670366151972929E+07,
2460595.500000000, A.D. 2024-Oct-12 00:00:00.0000, -3.125041803421974E+07, 4.716771954362912E+08, 5.540942064428362E+07,
2460602.500000000, A.D. 2024-Oct-19 00:00:00.0000, -4.134007554642820E+07, 4.717920802012508E+08, 5.409017671543089E+07,
2460609.500000000, A.D. 2024-Oct-26 00:00:00.0000, -5.141100580450141E+07, 4.716956607681581E+08, 5.274663847973222E+07,
2460616.500000000, A.D. 2024-Nov-02 00:00:00.0000, -6.145880672969864E+07, 4.713889477212512E+08, 5.137951963140151E+07,
2460623.500000000, A.D. 2024-Nov-09 00:00:00.0000, -7.147912735157840E+07, 4.708730409271753E+08, 4.998953832214952E+07,
2460630.500000000, A.D. 2024-Nov-16 00:00:00.0000, -8.146766931552547E+07, 4.701491272972630E+08, 4.857741667817959E+07,
2460637.500000000, A.D. 2024-Nov-23 00:00:00.0000, -9.142018826926091E+07, 4.692184784234231E+08, 4.714388031621537E+07,
2460644.500000000, A.D. 2024-Nov-30 00:00:00.0000, -1.013324949221348E+08, 4.680824480489172E+08, 4.568965783620837E+07,
2460651.500000000, A.D. 2024-Dec-07 00:00:00.0000, -1.112004553601587E+08, 4.667424697985361E+08, 4.421548028689098E+07,
2460658.500000000, A.D. 2024-Dec-14 00:00:00.0000, -1.210199913078838E+08, 4.652000563966715E+08, 4.272208076764634E+07,
2460665.500000000, A.D. 2024-Dec-21 00:00:00.0000, -1.307870826568703E+08, 4.634567991365252E+08, 4.121019427804869E+07,
2460672.500000000, A.D. 2024-Dec-28 00:00:00.0000, -1.404977702894809E+08, 4.615143646337987E+08, 3.968055739153478E+07,
2460679.500000000, A.D. 2025-Jan-04 00:00:00.0000, -1.501481566046740E+08, 4.593744912428393E+08, 3.813390770941415E+07,
2460686.500000000, A.D. 2025-Jan-11 00:00:00.0000, -1.597344055700299E+08, 4.570389867994623E+08, 3.657098339818668E+07,
2460693.500000000, A.D. 2025-Jan-18 00:00:00.0000, -1.692527432185805E+08, 4.545097267742186E+08, 3.499252281920591E+07,
2460700.500000000, A.D. 2025-Jan-25 00:00:00.0000, -1.786994583491279E+08, 4.517886523630481E+08, 3.339926418960801E+07,
2460707.500000000, A.D. 2025-Feb-01 00:00:00.0000, -1.880709032429542E+08, 4.488777684868088E+08, 3.179194525474608E+07,
2460714.500000000, A.D. 2025-Feb-08 00:00:00.0000, -1.973634943407092E+08, 4.457791417208146E+08, 3.017130296843591E+07,
2460721.500000000, A.D. 2025-Feb-15 00:00:00.0000, -2.065737128527999E+08, 4.424948981352844E+08, 2.853807317675894E+07,
2460728.500000000, A.D. 2025-Feb-22 00:00:00.0000, -2.156981052066295E+08, 4.390272209832155E+08, 2.689299029112476E+07,
$$EOE